<?xml version="1.0" encoding="UTF-8"?>
<ndm xmlns:xsi="http://www.w3.org/2001/XMLSchema-instance" xsi:noNamespaceSchemaLocation="https://sanaregistry.org/r/ndmxml_unqualified/ndmxml-2.0.0-master-2.0.xsd">
<omm id="CCSDS_OMM_VERS" version="2.0">
<header><CREATION_DATE/><ORIGINATOR/></header><body><segment><metadata><OBJECT_NAME>KUIPER-00096</OBJECT_NAME><OBJECT_ID>2025-171D</OBJECT_ID><CENTER_NAME>EARTH</CENTER_NAME><REF_FRAME>TEME</REF_FRAME><TIME_SYSTEM>UTC</TIME_SYSTEM><MEAN_ELEMENT_THEORY>SGP4</MEAN_ELEMENT_THEORY></metadata><data><meanElements><EPOCH>2025-12-23T18:34:14.816640</EPOCH><MEAN_MOTION>14.79979575</MEAN_MOTION><ECCENTRICITY>.00102911</ECCENTRICITY><INCLINATION>51.8976</INCLINATION><RA_OF_ASC_NODE>133.7843</RA_OF_ASC_NODE><ARG_OF_PERICENTER>254.3344</ARG_OF_PERICENTER><MEAN_ANOMALY>105.6483</MEAN_ANOMALY></meanElements><tleParameters><EPHEMERIS_TYPE>0</EPHEMERIS_TYPE><CLASSIFICATION_TYPE>U</CLASSIFICATION_TYPE><NORAD_CAT_ID>65135</NORAD_CAT_ID><ELEMENT_SET_NO>999</ELEMENT_SET_NO><REV_AT_EPOCH>2165</REV_AT_EPOCH><BSTAR>.56421859E-3</BSTAR><MEAN_MOTION_DOT>.4089E-4</MEAN_MOTION_DOT><MEAN_MOTION_DDOT>0</MEAN_MOTION_DDOT></tleParameters></data></segment></body></omm>
<omm id="CCSDS_OMM_VERS" version="2.0">
<header><CREATION_DATE/><ORIGINATOR/></header><body><segment><metadata><OBJECT_NAME>KUIPER-00097</OBJECT_NAME><OBJECT_ID>2025-171E</OBJECT_ID><CENTER_NAME>EARTH</CENTER_NAME><REF_FRAME>TEME</REF_FRAME><TIME_SYSTEM>UTC</TIME_SYSTEM><MEAN_ELEMENT_THEORY>SGP4</MEAN_ELEMENT_THEORY></metadata><data><meanElements><EPOCH>2025-12-23T20:07:32.391840</EPOCH><MEAN_MOTION>14.79936688</MEAN_MOTION><ECCENTRICITY>.00100091</ECCENTRICITY><INCLINATION>51.9029</INCLINATION><RA_OF_ASC_NODE>136.1176</RA_OF_ASC_NODE><ARG_OF_PERICENTER>256.9432</ARG_OF_PERICENTER><MEAN_ANOMALY>103.0413</MEAN_ANOMALY></meanElements><tleParameters><EPHEMERIS_TYPE>0</EPHEMERIS_TYPE><CLASSIFICATION_TYPE>U</CLASSIFICATION_TYPE><NORAD_CAT_ID>65136</NORAD_CAT_ID><ELEMENT_SET_NO>999</ELEMENT_SET_NO><REV_AT_EPOCH>2161</REV_AT_EPOCH><BSTAR>.7263002E-4</BSTAR><MEAN_MOTION_DOT>.331E-5</MEAN_MOTION_DOT><MEAN_MOTION_DDOT>0</MEAN_MOTION_DDOT></tleParameters></data></segment></body></omm>
<omm id="CCSDS_OMM_VERS" version="2.0">
<header><CREATION_DATE/><ORIGINATOR/></header><body><segment><metadata><OBJECT_NAME>KUIPER-00098</OBJECT_NAME><OBJECT_ID>2025-171F</OBJECT_ID><CENTER_NAME>EARTH</CENTER_NAME><REF_FRAME>TEME</REF_FRAME><TIME_SYSTEM>UTC</TIME_SYSTEM><MEAN_ELEMENT_THEORY>SGP4</MEAN_ELEMENT_THEORY></metadata><data><meanElements><EPOCH>2025-12-23T18:26:34.232928</EPOCH><MEAN_MOTION>14.79975330</MEAN_MOTION><ECCENTRICITY>.00072886</ECCENTRICITY><INCLINATION>51.8995</INCLINATION><RA_OF_ASC_NODE>138.8112</RA_OF_ASC_NODE><ARG_OF_PERICENTER>239.7544</ARG_OF_PERICENTER><MEAN_ANOMALY>120.2698</MEAN_ANOMALY></meanElements><tleParameters><EPHEMERIS_TYPE>0</EPHEMERIS_TYPE><CLASSIFICATION_TYPE>U</CLASSIFICATION_TYPE><NORAD_CAT_ID>65137</NORAD_CAT_ID><ELEMENT_SET_NO>999</ELEMENT_SET_NO><REV_AT_EPOCH>2092</REV_AT_EPOCH><BSTAR>.17052759E-2</BSTAR><MEAN_MOTION_DOT>.1282E-3</MEAN_MOTION_DOT><MEAN_MOTION_DDOT>0</MEAN_MOTION_DDOT></tleParameters></data></segment></body></omm>
<omm id="CCSDS_OMM_VERS" version="2.0">
<header><CREATION_DATE/><ORIGINATOR/></header><body><segment><metadata><OBJECT_NAME>KUIPER-00099</OBJECT_NAME><OBJECT_ID>2025-171G</OBJECT_ID><CENTER_NAME>EARTH</CENTER_NAME><REF_FRAME>TEME</REF_FRAME><TIME_SYSTEM>UTC</TIME_SYSTEM><MEAN_ELEMENT_THEORY>SGP4</MEAN_ELEMENT_THEORY></metadata><data><meanElements><EPOCH>2025-12-23T16:16:13.401696</EPOCH><MEAN_MOTION>14.79895913</MEAN_MOTION><ECCENTRICITY>.00009706</ECCENTRICITY><INCLINATION>51.9024</INCLINATION><RA_OF_ASC_NODE>129.1772</RA_OF_ASC_NODE><ARG_OF_PERICENTER>121.3438</ARG_OF_PERICENTER><MEAN_ANOMALY>238.7619</MEAN_ANOMALY></meanElements><tleParameters><EPHEMERIS_TYPE>0</EPHEMERIS_TYPE><CLASSIFICATION_TYPE>U</CLASSIFICATION_TYPE><NORAD_CAT_ID>65138</NORAD_CAT_ID><ELEMENT_SET_NO>999</ELEMENT_SET_NO><REV_AT_EPOCH>2170</REV_AT_EPOCH><BSTAR>.45737357E-3</BSTAR><MEAN_MOTION_DOT>.3264E-4</MEAN_MOTION_DOT><MEAN_MOTION_DDOT>0</MEAN_MOTION_DDOT></tleParameters></data></segment></body></omm>
<omm id="CCSDS_OMM_VERS" version="2.0">
<header><CREATION_DATE/><ORIGINATOR/></header><body><segment><metadata><OBJECT_NAME>KUIPER-00100</OBJECT_NAME><OBJECT_ID>2025-171H</OBJECT_ID><CENTER_NAME>EARTH</CENTER_NAME><REF_FRAME>TEME</REF_FRAME><TIME_SYSTEM>UTC</TIME_SYSTEM><MEAN_ELEMENT_THEORY>SGP4</MEAN_ELEMENT_THEORY></metadata><data><meanElements><EPOCH>2025-12-21T18:05:51.893376</EPOCH><MEAN_MOTION>14.84127443</MEAN_MOTION><ECCENTRICITY>.00012275</ECCENTRICITY><INCLINATION>51.8991</INCLINATION><RA_OF_ASC_NODE>135.1549</RA_OF_ASC_NODE><ARG_OF_PERICENTER>323.6888</ARG_OF_PERICENTER><MEAN_ANOMALY>36.3993</MEAN_ANOMALY></meanElements><tleParameters><EPHEMERIS_TYPE>0</EPHEMERIS_TYPE><CLASSIFICATION_TYPE>U</CLASSIFICATION_TYPE><NORAD_CAT_ID>65139</NORAD_CAT_ID><ELEMENT_SET_NO>999</ELEMENT_SET_NO><REV_AT_EPOCH>2145</REV_AT_EPOCH><BSTAR>.59966062E-3</BSTAR><MEAN_MOTION_DOT>.483E-4</MEAN_MOTION_DOT><MEAN_MOTION_DDOT>0</MEAN_MOTION_DDOT></tleParameters></data></segment></body></omm>
<omm id="CCSDS_OMM_VERS" version="2.0">
<header><CREATION_DATE/><ORIGINATOR/></header><body><segment><metadata><OBJECT_NAME>KUIPER-00102</OBJECT_NAME><OBJECT_ID>2025-171J</OBJECT_ID><CENTER_NAME>EARTH</CENTER_NAME><REF_FRAME>TEME</REF_FRAME><TIME_SYSTEM>UTC</TIME_SYSTEM><MEAN_ELEMENT_THEORY>SGP4</MEAN_ELEMENT_THEORY></metadata><data><meanElements><EPOCH>2025-12-24T00:00:00.999648</EPOCH><MEAN_MOTION>14.78613699</MEAN_MOTION><ECCENTRICITY>.00008043</ECCENTRICITY><INCLINATION>51.8979</INCLINATION><RA_OF_ASC_NODE>127.7734</RA_OF_ASC_NODE><ARG_OF_PERICENTER>61.5764</ARG_OF_PERICENTER><MEAN_ANOMALY>43.9237</MEAN_ANOMALY></meanElements><tleParameters><EPHEMERIS_TYPE>0</EPHEMERIS_TYPE><CLASSIFICATION_TYPE>U</CLASSIFICATION_TYPE><NORAD_CAT_ID>65140</NORAD_CAT_ID><ELEMENT_SET_NO>999</ELEMENT_SET_NO><REV_AT_EPOCH>556</REV_AT_EPOCH><BSTAR>.15144441E-2</BSTAR><MEAN_MOTION_DOT>.10989E-3</MEAN_MOTION_DOT><MEAN_MOTION_DDOT>0</MEAN_MOTION_DDOT></tleParameters></data></segment></body></omm>
<omm id="CCSDS_OMM_VERS" version="2.0">
<header><CREATION_DATE/><ORIGINATOR/></header><body><segment><metadata><OBJECT_NAME>KUIPER-00103</OBJECT_NAME><OBJECT_ID>2025-171K</OBJECT_ID><CENTER_NAME>EARTH</CENTER_NAME><REF_FRAME>TEME</REF_FRAME><TIME_SYSTEM>UTC</TIME_SYSTEM><MEAN_ELEMENT_THEORY>SGP4</MEAN_ELEMENT_THEORY></metadata><data><meanElements><EPOCH>2025-12-23T19:03:35.562240</EPOCH><MEAN_MOTION>14.79923379</MEAN_MOTION><ECCENTRICITY>.00055908</ECCENTRICITY><INCLINATION>51.8986</INCLINATION><RA_OF_ASC_NODE>146.1881</RA_OF_ASC_NODE><ARG_OF_PERICENTER>233.0595</ARG_OF_PERICENTER><MEAN_ANOMALY>126.9856</MEAN_ANOMALY></meanElements><tleParameters><EPHEMERIS_TYPE>0</EPHEMERIS_TYPE><CLASSIFICATION_TYPE>U</CLASSIFICATION_TYPE><NORAD_CAT_ID>65141</NORAD_CAT_ID><ELEMENT_SET_NO>999</ELEMENT_SET_NO><REV_AT_EPOCH>2147</REV_AT_EPOCH><BSTAR>.54207723E-3</BSTAR><MEAN_MOTION_DOT>.3913E-4</MEAN_MOTION_DOT><MEAN_MOTION_DDOT>0</MEAN_MOTION_DDOT></tleParameters></data></segment></body></omm>
<omm id="CCSDS_OMM_VERS" version="2.0">
<header><CREATION_DATE/><ORIGINATOR/></header><body><segment><metadata><OBJECT_NAME>KUIPER-00104</OBJECT_NAME><OBJECT_ID>2025-171L</OBJECT_ID><CENTER_NAME>EARTH</CENTER_NAME><REF_FRAME>TEME</REF_FRAME><TIME_SYSTEM>UTC</TIME_SYSTEM><MEAN_ELEMENT_THEORY>SGP4</MEAN_ELEMENT_THEORY></metadata><data><meanElements><EPOCH>2025-12-23T19:06:27.639936</EPOCH><MEAN_MOTION>14.76613686</MEAN_MOTION><ECCENTRICITY>.00032581</ECCENTRICITY><INCLINATION>51.9010</INCLINATION><RA_OF_ASC_NODE>132.8063</RA_OF_ASC_NODE><ARG_OF_PERICENTER>287.4926</ARG_OF_PERICENTER><MEAN_ANOMALY>72.5679</MEAN_ANOMALY></meanElements><tleParameters><EPHEMERIS_TYPE>0</EPHEMERIS_TYPE><CLASSIFICATION_TYPE>U</CLASSIFICATION_TYPE><NORAD_CAT_ID>65142</NORAD_CAT_ID><ELEMENT_SET_NO>999</ELEMENT_SET_NO><REV_AT_EPOCH>2166</REV_AT_EPOCH><BSTAR>.58111452E-3</BSTAR><MEAN_MOTION_DOT>.3883E-4</MEAN_MOTION_DOT><MEAN_MOTION_DDOT>0</MEAN_MOTION_DDOT></tleParameters></data></segment></body></omm>
<omm id="CCSDS_OMM_VERS" version="2.0">
<header><CREATION_DATE/><ORIGINATOR/></header><body><segment><metadata><OBJECT_NAME>KUIPER-00105</OBJECT_NAME><OBJECT_ID>2025-171M</OBJECT_ID><CENTER_NAME>EARTH</CENTER_NAME><REF_FRAME>TEME</REF_FRAME><TIME_SYSTEM>UTC</TIME_SYSTEM><MEAN_ELEMENT_THEORY>SGP4</MEAN_ELEMENT_THEORY></metadata><data><meanElements><EPOCH>2025-12-22T16:26:45.181824</EPOCH><MEAN_MOTION>14.79960378</MEAN_MOTION><ECCENTRICITY>.00123706</ECCENTRICITY><INCLINATION>51.8988</INCLINATION><RA_OF_ASC_NODE>146.1630</RA_OF_ASC_NODE><ARG_OF_PERICENTER>206.1038</ARG_OF_PERICENTER><MEAN_ANOMALY>153.9302</MEAN_ANOMALY></meanElements><tleParameters><EPHEMERIS_TYPE>0</EPHEMERIS_TYPE><CLASSIFICATION_TYPE>U</CLASSIFICATION_TYPE><NORAD_CAT_ID>65143</NORAD_CAT_ID><ELEMENT_SET_NO>999</ELEMENT_SET_NO><REV_AT_EPOCH>2138</REV_AT_EPOCH><BSTAR>.488148E-3</BSTAR><MEAN_MOTION_DOT>.3506E-4</MEAN_MOTION_DOT><MEAN_MOTION_DDOT>0</MEAN_MOTION_DDOT></tleParameters></data></segment></body></omm>

</ndm>
